[{"OBJECT_NAME":"STARLINK-4579","OBJECT_ID":"2022-105AF","EPOCH":"2026-03-09T14:56:14.058816","MEAN_MOTION":15.05644759,"ECCENTRICITY":0.0002038,"INCLINATION":97.6033,"RA_OF_ASC_NODE":311.1666,"ARG_OF_PERICENTER":98.0084,"MEAN_ANOMALY":262.1374,"EPHEMERIS_TYPE":0,"CLASSIFICATION_TYPE":"U","NORAD_CAT_ID":53677,"ELEMENT_SET_NO":999,"REV_AT_EPOCH":19329,"BSTAR":0.0002046,"MEAN_MOTION_DOT":2.892e-5,"MEAN_MOTION_DDOT":0},{"OBJECT_NAME":"STARLING 1","OBJECT_ID":"2023-100C","EPOCH":"2026-03-09T22:50:11.977728","MEAN_MOTION":15.06170613,"ECCENTRICITY":0.00043741,"INCLINATION":99.5156,"RA_OF_ASC_NODE":64.1519,"ARG_OF_PERICENTER":233.3149,"MEAN_ANOMALY":126.7671,"EPHEMERIS_TYPE":0,"CLASSIFICATION_TYPE":"U","NORAD_CAT_ID":57388,"ELEMENT_SET_NO":999,"REV_AT_EPOCH":14496,"BSTAR":0.00020885616,"MEAN_MOTION_DOT":2.969e-5,"MEAN_MOTION_DDOT":0}]
